{
  "type": "FeatureCollection",
  "features": [
    {
      "type": "Feature",
      "properties": {
        "norad_id": 64902,
        "name": "CO3D 2",
        "group": "resource",
        "lat": 22.530074121071042,
        "lon": -117.1006048296893,
        "alt_km": 504.6938579995913,
        "timestamp": "2025-12-09T11:33:54.458465+00:00",
        "meta_object_name": "CO3D 2",
        "meta_object_id": "2025-156D",
        "meta_epoch": "2025-12-09T04:33:25.893792",
        "meta_mean_motion": 15.20212948,
        "meta_eccentricity": 9.37e-05,
        "meta_inclination": 97.4339,
        "meta_ra_of_asc_node": 59.5067,
        "meta_arg_of_pericenter": 90.5479,
        "meta_mean_anomaly": 269.5863,
        "meta_ephemeris_type": 0,
        "meta_classification_type": "U",
        "meta_norad_cat_id": 64902,
        "meta_element_set_no": 999,
        "meta_rev_at_epoch": 2066,
        "meta_bstar": 0.00033656,
        "meta_mean_motion_dot": 7.227e-05,
        "meta_mean_motion_ddot": 0,
        "tle_line1": "1 64902U 25156D   25343.18988303  .00007227  00000+0  33656-3 0  9990",
        "tle_line2": "2 64902  97.4339  59.5067 0000937  90.5479 269.5863 15.20212948 20660"
      },
      "geometry": {
        "type": "Point",
        "coordinates": [
          -117.1006048296893,
          22.530074121071042
        ]
      }
    },
    {
      "type": "Feature",
      "properties": {
        "norad_id": 64903,
        "name": "CO3D 1",
        "group": "resource",
        "lat": 23.39827066066162,
        "lon": -116.96664578239654,
        "alt_km": 504.4817203058574,
        "timestamp": "2025-12-09T11:33:54.458474+00:00",
        "meta_object_name": "CO3D 1",
        "meta_object_id": "2025-156E",
        "meta_epoch": "2025-12-09T04:33:39.539808",
        "meta_mean_motion": 15.20201542,
        "meta_eccentricity": 9.63e-05,
        "meta_inclination": 97.4341,
        "meta_ra_of_asc_node": 59.5068,
        "meta_arg_of_pericenter": 99.398,
        "meta_mean_anomaly": 260.7364,
        "meta_ephemeris_type": 0,
        "meta_classification_type": "U",
        "meta_norad_cat_id": 64903,
        "meta_element_set_no": 999,
        "meta_rev_at_epoch": 2066,
        "meta_bstar": 0.00035489,
        "meta_mean_motion_dot": 7.623e-05,
        "meta_mean_motion_ddot": 0,
        "tle_line1": "1 64903U 25156E   25343.19004097  .00007623  00000+0  35489-3 0  9997",
        "tle_line2": "2 64903  97.4341  59.5068 0000963  99.3980 260.7364 15.20201542 20665"
      },
      "geometry": {
        "type": "Point",
        "coordinates": [
          -116.96664578239654,
          23.39827066066162
        ]
      }
    },
    {
      "type": "Feature",
      "properties": {
        "norad_id": 66514,
        "name": "SENTINEL-6B",
        "group": "resource",
        "lat": -6.810974614224712,
        "lon": -7.745656164511181,
        "alt_km": 1325.392393891897,
        "timestamp": "2025-12-09T11:33:54.458484+00:00",
        "meta_object_name": "SENTINEL-6B",
        "meta_object_id": "2025-264A",
        "meta_epoch": "2025-12-08T23:22:28.384032",
        "meta_mean_motion": 12.84031992,
        "meta_eccentricity": 0.0021041,
        "meta_inclination": 66.0385,
        "meta_ra_of_asc_node": 170.2707,
        "meta_arg_of_pericenter": 268.23,
        "meta_mean_anomaly": 91.6307,
        "meta_ephemeris_type": 0,
        "meta_classification_type": "U",
        "meta_norad_cat_id": 66514,
        "meta_element_set_no": 999,
        "meta_rev_at_epoch": 280,
        "meta_bstar": 0.00010602,
        "meta_mean_motion_dot": -3.6e-07,
        "meta_mean_motion_ddot": 0,
        "tle_line1": "1 66514U 25264A   25342.97393963 -.00000036  00000+0  10602-3 0  9997",
        "tle_line2": "2 66514  66.0385 170.2707 0021041 268.2300  91.6307 12.84031992  2800"
      },
      "geometry": {
        "type": "Point",
        "coordinates": [
          -7.745656164511181,
          -6.810974614224712
        ]
      }
    }
  ]
}